start=new Date('2023-01-12T00:00:00.000Z').valueOf();
sats=[{"OBJECT_NAME":"STARLINK-4184","ELEMENT_SET_NO":"999","GP_ID":"222826136","SEMIMAJOR_AXIS":"6917.825","COUNTRY_CODE":"US","ARG_OF_PERICENTER":"59.1330","CENTER_NAME":"EARTH","APOAPSIS":"541.273","TLE_LINE2":"2 52852  53.2155 159.6352 0002287  59.1330 300.9887 15.08857989 31870","SITE":"AFETR","MEAN_MOTION_DDOT":"0.0000000000000","INCLINATION":"53.2155","REV_AT_EPOCH":"3187","MEAN_MOTION_DOT":"0.00006037","NORAD_CAT_ID":"52852","EPHEMERIS_TYPE":"0","CLASSIFICATION_TYPE":"U","TIME_SYSTEM":"UTC","BSTAR":"0.00039688000000","MEAN_ANOMALY":"300.9887","RCS_SIZE":"LARGE","OBJECT_TYPE":"PAYLOAD","REF_FRAME":"TEME","LAUNCH_DATE":"2022-06-17","PERIAPSIS":"538.108","MEAN_MOTION":"15.08857989","RA_OF_ASC_NODE":"159.6352","DECAY_DATE":null,"TLE_LINE1":"1 52852U 22062Y   23011.80208208  .00006037  00000-0  39688-3 0  9992","OBJECT_ID":"2022-062Y","ECCENTRICITY":"0.00022870","MEAN_ELEMENT_THEORY":"SGP4","FILE":"3740419","EPOCH":"2023-01-11T19:14:59.891712","PERIOD":"95.436"},{"ELEMENT_SET_NO":"999","GP_ID":"222825882","SEMIMAJOR_AXIS":"6917.919","OBJECT_NAME":"STARLINK-4189","COUNTRY_CODE":"US","CENTER_NAME":"EARTH","ARG_OF_PERICENTER":"28.8913","APOAPSIS":"542.067","SITE":"AFETR","INCLINATION":"53.2188","MEAN_MOTION_DDOT":"0.0000000000000","TLE_LINE2":"2 52853  53.2188 159.4073 0003299  28.8913 331.2262 15.08827256 31888","MEAN_MOTION_DOT":"0.00000819","REV_AT_EPOCH":"3188","NORAD_CAT_ID":"52853","EPHEMERIS_TYPE":"0","RCS_SIZE":"LARGE","CLASSIFICATION_TYPE":"U","TIME_SYSTEM":"UTC","BSTAR":"0.00006960700000","MEAN_ANOMALY":"331.2262","REF_FRAME":"TEME","LAUNCH_DATE":"2022-06-17","PERIAPSIS":"537.502","MEAN_MOTION":"15.08827256","OBJECT_TYPE":"PAYLOAD","OBJECT_ID":"2022-062Z","TLE_LINE1":"1 52853U 22062Z   23011.85361752  .00000819  00000-0  69607-4 0  9999","ECCENTRICITY":"0.00032990","RA_OF_ASC_NODE":"159.4073","DECAY_DATE":null,"EPOCH":"2023-01-11T20:29:12.553728","PERIOD":"95.438","MEAN_ELEMENT_THEORY":"SGP4","FILE":"3740419"},{"GP_ID":"222825135","ELEMENT_SET_NO":"999","SEMIMAJOR_AXIS":"6917.834","OBJECT_NAME":"STARLINK-4204","COUNTRY_CODE":"US","ARG_OF_PERICENTER":"44.3396","CENTER_NAME":"EARTH","APOAPSIS":"541.787","SITE":"AFETR","MEAN_MOTION_DDOT":"0.0000000000000","INCLINATION":"53.2182","TLE_LINE2":"2 52854  53.2182 159.6891 0003017  44.3396 315.7837 15.08855024 31877","REV_AT_EPOCH":"3187","MEAN_MOTION_DOT":"0.00001793","NORAD_CAT_ID":"52854","EPHEMERIS_TYPE":"0","RCS_SIZE":"LARGE","CLASSIFICATION_TYPE":"U","TIME_SYSTEM":"UTC","BSTAR":"0.00013069000000","MEAN_ANOMALY":"315.7837","PERIAPSIS":"537.612","LAUNCH_DATE":"2022-06-17","REF_FRAME":"TEME","MEAN_MOTION":"15.08855024","OBJECT_TYPE":"PAYLOAD","OBJECT_ID":"2022-062AA","TLE_LINE1":"1 52854U 22062AA  23011.79103093  .00001793  00000-0  13069-3 0  9997","ECCENTRICITY":"0.00030170","RA_OF_ASC_NODE":"159.6891","DECAY_DATE":null,"EPOCH":"2023-01-11T18:59:05.072352","PERIOD":"95.437","MEAN_ELEMENT_THEORY":"SGP4","FILE":"3740419"},{"TIME_SYSTEM":"UTC","BSTAR":"0.00020317000000","MEAN_ANOMALY":"327.1671","CLASSIFICATION_TYPE":"U","RCS_SIZE":"LARGE","OBJECT_TYPE":"PAYLOAD","PERIAPSIS":"537.778","LAUNCH_DATE":"2022-06-17","MEAN_MOTION":"15.08819410","REF_FRAME":"TEME","RA_OF_ASC_NODE":"159.7292","DECAY_DATE":null,"OBJECT_ID":"2022-062AB","TLE_LINE1":"1 52855U 22062AB  23011.78001821  .00002945  00000-0  20317-3 0  9997","ECCENTRICITY":"0.00029350","MEAN_ELEMENT_THEORY":"SGP4","FILE":"3740419","PERIOD":"95.439","EPOCH":"2023-01-11T18:43:13.573344","OBJECT_NAME":"STARLINK-4209","GP_ID":"222824884","ELEMENT_SET_NO":"999","SEMIMAJOR_AXIS":"6917.943","COUNTRY_CODE":"US","APOAPSIS":"541.839","CENTER_NAME":"EARTH","ARG_OF_PERICENTER":"32.9503","TLE_LINE2":"2 52855  53.2177 159.7292 0002935  32.9503 327.1671 15.08819410 31871","INCLINATION":"53.2177","MEAN_MOTION_DDOT":"0.0000000000000","SITE":"AFETR","NORAD_CAT_ID":"52855","MEAN_MOTION_DOT":"0.00002945","REV_AT_EPOCH":"3187","EPHEMERIS_TYPE":"0"},{"OBJECT_NAME":"STARLINK-4201","ELEMENT_SET_NO":"999","GP_ID":"222825636","SEMIMAJOR_AXIS":"6917.854","COUNTRY_CODE":"US","APOAPSIS":"541.523","ARG_OF_PERICENTER":"39.5916","CENTER_NAME":"EARTH","TLE_LINE2":"2 52856  53.2155 159.7122 0002608  39.5916 320.5267 15.08848685 31872","MEAN_MOTION_DDOT":"0.0000000000000","INCLINATION":"53.2155","SITE":"AFETR","NORAD_CAT_ID":"52856","REV_AT_EPOCH":"3187","MEAN_MOTION_DOT":"0.00003022","EPHEMERIS_TYPE":"0","TIME_SYSTEM":"UTC","BSTAR":"0.00020784000000","MEAN_ANOMALY":"320.5267","CLASSIFICATION_TYPE":"U","RCS_SIZE":"LARGE","OBJECT_TYPE":"PAYLOAD","LAUNCH_DATE":"2022-06-17","MEAN_MOTION":"15.08848685","PERIAPSIS":"537.915","REF_FRAME":"TEME","RA_OF_ASC_NODE":"159.7122","DECAY_DATE":null,"TLE_LINE1":"1 52856U 22062AC  23011.78368017  .00003022  00000-0  20784-3 0  9996","OBJECT_ID":"2022-062AC","ECCENTRICITY":"0.00026080","MEAN_ELEMENT_THEORY":"SGP4","FILE":"3740419","PERIOD":"95.437","EPOCH":"2023-01-11T18:48:29.966688"},{"EPOCH":"2023-01-11T18:32:36.121056","PERIOD":"95.438","MEAN_ELEMENT_THEORY":"SGP4","FILE":"3740419","OBJECT_ID":"2022-062AD","TLE_LINE1":"1 52857U 22062AD  23011.77264029  .00000075  00000-0  22835-4 0  9999","ECCENTRICITY":"0.00028840","RA_OF_ASC_NODE":"159.7574","DECAY_DATE":null,"LAUNCH_DATE":"2022-06-17","PERIAPSIS":"537.750","MEAN_MOTION":"15.08840135","REF_FRAME":"TEME","OBJECT_TYPE":"PAYLOAD","RCS_SIZE":"LARGE","CLASSIFICATION_TYPE":"U","TIME_SYSTEM":"UTC","BSTAR":"0.00002283500000","MEAN_ANOMALY":"324.6785","REV_AT_EPOCH":"3187","MEAN_MOTION_DOT":"0.00000075","NORAD_CAT_ID":"52857","EPHEMERIS_TYPE":"0","SITE":"AFETR","INCLINATION":"53.2177","MEAN_MOTION_DDOT":"0.0000000000000","TLE_LINE2":"2 52857  53.2177 159.7574 0002884  35.4399 324.6785 15.08840135 31876","COUNTRY_CODE":"US","CENTER_NAME":"EARTH","ARG_OF_PERICENTER":"35.4399","APOAPSIS":"541.740","GP_ID":"222826383","ELEMENT_SET_NO":"999","SEMIMAJOR_AXIS":"6917.880","OBJECT_NAME":"STARLINK-4199"},{"OBJECT_TYPE":"PAYLOAD","PERIAPSIS":"538.628","LAUNCH_DATE":"2022-06-17","REF_FRAME":"TEME","MEAN_MOTION":"15.08835322","MEAN_ANOMALY":"296.9436","BSTAR":"0.00003494300000","TIME_SYSTEM":"UTC","CLASSIFICATION_TYPE":"U","RCS_SIZE":"LARGE","FILE":"3740419","MEAN_ELEMENT_THEORY":"SGP4","PERIOD":"95.438","EPOCH":"2023-01-11T18:44:35.128896","DECAY_DATE":null,"RA_OF_ASC_NODE":"159.7263","ECCENTRICITY":"0.00016360","OBJECT_ID":"2022-062AE","TLE_LINE1":"1 52858U 22062AE  23011.78096214  .00000268  00000-0  34943-4 0  9997","APOAPSIS":"540.891","CENTER_NAME":"EARTH","ARG_OF_PERICENTER":"63.1723","COUNTRY_CODE":"US","OBJECT_NAME":"STARLINK-4198","SEMIMAJOR_AXIS":"6917.895","GP_ID":"222824636","ELEMENT_SET_NO":"999","EPHEMERIS_TYPE":"0","NORAD_CAT_ID":"52858","MEAN_MOTION_DOT":"0.00000268","REV_AT_EPOCH":"3187","TLE_LINE2":"2 52858  53.2151 159.7263 0001636  63.1723 296.9436 15.08835322 31873","MEAN_MOTION_DDOT":"0.0000000000000","INCLINATION":"53.2151","SITE":"AFETR"},{"LAUNCH_DATE":"2022-06-17","MEAN_MOTION":"15.08842795","PERIAPSIS":"537.754","REF_FRAME":"TEME","OBJECT_TYPE":"PAYLOAD","RCS_SIZE":"LARGE","MEAN_ANOMALY":"299.9975","BSTAR":"0.00013586000000","TIME_SYSTEM":"UTC","CLASSIFICATION_TYPE":"U","PERIOD":"95.437","EPOCH":"2023-01-11T20:02:42.690912","FILE":"3740419","MEAN_ELEMENT_THEORY":"SGP4","ECCENTRICITY":"0.00028660","OBJECT_ID":"2022-062AF","TLE_LINE1":"1 52859U 22062AF  23011.83521633  .00001875  00000-0  13586-3 0  9996","DECAY_DATE":null,"RA_OF_ASC_NODE":"159.4759","APOAPSIS":"541.720","CENTER_NAME":"EARTH","ARG_OF_PERICENTER":"60.1302","COUNTRY_CODE":"US","SEMIMAJOR_AXIS":"6917.872","ELEMENT_SET_NO":"999","GP_ID":"222825385","OBJECT_NAME":"STARLINK-4196","EPHEMERIS_TYPE":"0","NORAD_CAT_ID":"52859","MEAN_MOTION_DOT":"0.00001875","REV_AT_EPOCH":"3188","INCLINATION":"53.2173","MEAN_MOTION_DDOT":"0.0000000000000","SITE":"AFETR","TLE_LINE2":"2 52859  53.2173 159.4759 0002866  60.1302 299.9975 15.08842795 31885"},{"OBJECT_TYPE":"PAYLOAD","LAUNCH_DATE":"2022-06-17","REF_FRAME":"TEME","PERIAPSIS":"537.178","MEAN_MOTION":"15.08829060","CLASSIFICATION_TYPE":"U","BSTAR":"-0.00000154650000","TIME_SYSTEM":"UTC","MEAN_ANOMALY":"311.6563","RCS_SIZE":"LARGE","FILE":"3740419","MEAN_ELEMENT_THEORY":"SGP4","EPOCH":"2023-01-11T20:13:18.759936","PERIOD":"95.438","DECAY_DATE":null,"RA_OF_ASC_NODE":"159.4540","ECCENTRICITY":"0.00037590","OBJECT_ID":"2022-062AG","TLE_LINE1":"1 52860U 22062AG  23011.84257824 -.00000314  00000-0 -15465-5 0  9996","ARG_OF_PERICENTER":"48.4751","CENTER_NAME":"EARTH","APOAPSIS":"542.379","COUNTRY_CODE":"US","OBJECT_NAME":"STARLINK-4191","SEMIMAJOR_AXIS":"6917.914","ELEMENT_SET_NO":"999","GP_ID":"222826137","EPHEMERIS_TYPE":"0","REV_AT_EPOCH":"3188","MEAN_MOTION_DOT":"-0.00000314","NORAD_CAT_ID":"52860","TLE_LINE2":"2 52860  53.2159 159.4540 0003759  48.4751 311.6563 15.08829060 31883","SITE":"AFETR","MEAN_MOTION_DDOT":"0.0000000000000","INCLINATION":"53.2159"},{"DECAY_DATE":null,"RA_OF_ASC_NODE":"159.5741","ECCENTRICITY":"0.00029920","OBJECT_ID":"2022-062AH","TLE_LINE1":"1 52861U 22062AH  23011.81681249  .00001438  00000-0  10845-3 0  9997","FILE":"3740419","MEAN_ELEMENT_THEORY":"SGP4","PERIOD":"95.437","EPOCH":"2023-01-11T19:36:12.599136","MEAN_ANOMALY":"302.3958","BSTAR":"0.00010845000000","TIME_SYSTEM":"UTC","CLASSIFICATION_TYPE":"U","RCS_SIZE":"LARGE","OBJECT_TYPE":"PAYLOAD","PERIAPSIS":"537.655","LAUNCH_DATE":"2022-06-17","MEAN_MOTION":"15.08846770","REF_FRAME":"TEME","TLE_LINE2":"2 52861  53.2173 159.5741 0002992  57.7324 302.3958 15.08846770 31883","MEAN_MOTION_DDOT":"0.0000000000000","INCLINATION":"53.2173","SITE":"AFETR","EPHEMERIS_TYPE":"0","NORAD_CAT_ID":"52861","REV_AT_EPOCH":"3188","MEAN_MOTION_DOT":"0.00001438","OBJECT_NAME":"STARLINK-4112","SEMIMAJOR_AXIS":"6917.860","GP_ID":"222825883","ELEMENT_SET_NO":"999","APOAPSIS":"541.795","ARG_OF_PERICENTER":"57.7324","CENTER_NAME":"EARTH","COUNTRY_CODE":"US"}];
